start=new Date('2021-10-19T00:00:00.000Z').valueOf();
sats=[{"DECAY_DATE":null,"INCLINATION":"53.0550","RCS_SIZE":"LARGE","OBJECT_ID":"2020-062AK","REV_AT_EPOCH":"6270","TLE_LINE1":"1 46358U 20062AK  21291.68718392  .00000324  00000-0  40597-4 0  9993","TLE_LINE2":"2 46358  53.0550  12.7794 0000939  95.9321 264.1775 15.06402061 62708","APOAPSIS":"547.858","NORAD_CAT_ID":"46358","CLASSIFICATION_TYPE":"U","MEAN_ANOMALY":"264.1775","ARG_OF_PERICENTER":"95.9321","TIME_SYSTEM":"UTC","ELEMENT_SET_NO":"999","MEAN_MOTION_DOT":"0.00000324","MEAN_MOTION_DDOT":"0.0000000000000","GP_ID":"187536292","ECCENTRICITY":"0.00009390","FILE":"3170620","SITE":"AFETR","REF_FRAME":"TEME","EPHEMERIS_TYPE":"0","MEAN_MOTION":"15.06402061","OBJECT_TYPE":"PAYLOAD","OBJECT_NAME":"STARLINK-1690","EPOCH":"2021-10-18T16:29:32.690688","BSTAR":"0.00004059700000","COUNTRY_CODE":"US","SEMIMAJOR_AXIS":"6925.342","PERIOD":"95.592","RA_OF_ASC_NODE":"12.7794","PERIAPSIS":"546.557","MEAN_ELEMENT_THEORY":"SGP4","LAUNCH_DATE":"2020-09-03","CENTER_NAME":"EARTH"},{"CLASSIFICATION_TYPE":"U","NORAD_CAT_ID":"46359","TIME_SYSTEM":"UTC","ELEMENT_SET_NO":"999","ARG_OF_PERICENTER":"84.0597","MEAN_ANOMALY":"276.0529","OBJECT_ID":"2020-062AL","REV_AT_EPOCH":"6334","DECAY_DATE":null,"INCLINATION":"53.0551","RCS_SIZE":"LARGE","APOAPSIS":"548.018","TLE_LINE1":"1 46359U 20062AL  21291.80006483  .00002594  00000-0  19294-3 0  9999","TLE_LINE2":"2 46359  53.0551 327.2753 0001204  84.0597 276.0529 15.06409740 63340","SEMIMAJOR_AXIS":"6925.319","PERIOD":"95.592","EPOCH":"2021-10-18T19:12:05.601312","BSTAR":"0.00019294000000","COUNTRY_CODE":"US","LAUNCH_DATE":"2020-09-03","CENTER_NAME":"EARTH","PERIAPSIS":"546.350","RA_OF_ASC_NODE":"327.2753","MEAN_ELEMENT_THEORY":"SGP4","FILE":"3170620","SITE":"AFETR","MEAN_MOTION_DDOT":"0.0000000000000","MEAN_MOTION_DOT":"0.00002594","ECCENTRICITY":"0.00012040","GP_ID":"187537543","OBJECT_TYPE":"PAYLOAD","OBJECT_NAME":"STARLINK-1707","REF_FRAME":"TEME","EPHEMERIS_TYPE":"0","MEAN_MOTION":"15.06409740"},{"ARG_OF_PERICENTER":"81.6584","MEAN_ANOMALY":"278.4535","ELEMENT_SET_NO":"999","TIME_SYSTEM":"UTC","NORAD_CAT_ID":"46360","CLASSIFICATION_TYPE":"U","TLE_LINE2":"2 46360  53.0549 328.3719 0001151  81.6584 278.4535 15.06407550 63310","TLE_LINE1":"1 46360U 20062AM  21291.55679302  .00002454  00000-0  18354-3 0  9990","APOAPSIS":"547.988","RCS_SIZE":"LARGE","INCLINATION":"53.0549","DECAY_DATE":null,"OBJECT_ID":"2020-062AM","REV_AT_EPOCH":"6331","MEAN_ELEMENT_THEORY":"SGP4","PERIAPSIS":"546.393","RA_OF_ASC_NODE":"328.3719","CENTER_NAME":"EARTH","LAUNCH_DATE":"2020-09-03","COUNTRY_CODE":"US","BSTAR":"0.00018354000000","EPOCH":"2021-10-18T13:21:46.916928","PERIOD":"95.592","SEMIMAJOR_AXIS":"6925.325","MEAN_MOTION":"15.06407550","EPHEMERIS_TYPE":"0","REF_FRAME":"TEME","OBJECT_NAME":"STARLINK-1713","OBJECT_TYPE":"PAYLOAD","ECCENTRICITY":"0.00011510","GP_ID":"187504653","MEAN_MOTION_DDOT":"0.0000000000000","MEAN_MOTION_DOT":"0.00002454","SITE":"AFETR","FILE":"3170121"},{"MEAN_MOTION_DDOT":"0.0000000000000","MEAN_MOTION_DOT":"0.00003502","GP_ID":"187536542","ECCENTRICITY":"0.00012540","FILE":"3170620","SITE":"AFETR","EPHEMERIS_TYPE":"0","REF_FRAME":"TEME","MEAN_MOTION":"15.06406892","OBJECT_TYPE":"PAYLOAD","OBJECT_NAME":"STARLINK-1722","COUNTRY_CODE":"US","EPOCH":"2021-10-18T19:01:29.604864","BSTAR":"0.00025381000000","SEMIMAJOR_AXIS":"6925.327","PERIOD":"95.592","PERIAPSIS":"546.324","RA_OF_ASC_NODE":"327.3112","MEAN_ELEMENT_THEORY":"SGP4","CENTER_NAME":"EARTH","LAUNCH_DATE":"2020-09-03","INCLINATION":"53.0546","DECAY_DATE":null,"RCS_SIZE":"LARGE","REV_AT_EPOCH":"6334","OBJECT_ID":"2020-062AN","TLE_LINE2":"2 46361  53.0546 327.3112 0001254  86.0268 274.0864 15.06406892 63344","TLE_LINE1":"1 46361U 20062AN  21291.79270376  .00003502  00000-0  25381-3 0  9998","APOAPSIS":"548.061","NORAD_CAT_ID":"46361","CLASSIFICATION_TYPE":"U","ARG_OF_PERICENTER":"86.0268","MEAN_ANOMALY":"274.0864","ELEMENT_SET_NO":"999","TIME_SYSTEM":"UTC"},{"OBJECT_TYPE":"PAYLOAD","OBJECT_NAME":"STARLINK-1726","EPHEMERIS_TYPE":"0","REF_FRAME":"TEME","MEAN_MOTION":"15.06400919","FILE":"3170121","SITE":"AFETR","MEAN_MOTION_DDOT":"0.0000000000000","MEAN_MOTION_DOT":"0.00001845","GP_ID":"187503152","ECCENTRICITY":"0.00010440","CENTER_NAME":"EARTH","LAUNCH_DATE":"2020-09-03","RA_OF_ASC_NODE":"328.2961","PERIAPSIS":"546.488","MEAN_ELEMENT_THEORY":"SGP4","PERIOD":"95.592","SEMIMAJOR_AXIS":"6925.346","COUNTRY_CODE":"US","EPOCH":"2021-10-18T13:43:02.448768","BSTAR":"0.00014269000000","APOAPSIS":"547.934","TLE_LINE2":"2 46362  53.0540 328.2961 0001044  81.8529 278.2578 15.06400919 63310","TLE_LINE1":"1 46362U 20062AP  21291.57155612  .00001845  00000-0  14269-3 0  9991","OBJECT_ID":"2020-062AP","REV_AT_EPOCH":"6331","INCLINATION":"53.0540","DECAY_DATE":null,"RCS_SIZE":"LARGE","ELEMENT_SET_NO":"999","TIME_SYSTEM":"UTC","MEAN_ANOMALY":"278.2578","ARG_OF_PERICENTER":"81.8529","CLASSIFICATION_TYPE":"U","NORAD_CAT_ID":"46362"},{"REV_AT_EPOCH":"6329","OBJECT_ID":"2020-062AQ","RCS_SIZE":"LARGE","DECAY_DATE":null,"INCLINATION":"53.0545","APOAPSIS":"547.943","TLE_LINE1":"1 46363U 20062AQ  21291.43148958  .00002041  00000-0  15588-3 0  9996","TLE_LINE2":"2 46363  53.0545 328.9263 0001052  95.0358 265.0751 15.06399829 63295","CLASSIFICATION_TYPE":"U","NORAD_CAT_ID":"46363","ELEMENT_SET_NO":"999","TIME_SYSTEM":"UTC","ARG_OF_PERICENTER":"95.0358","MEAN_ANOMALY":"265.0751","SITE":"AFETR","FILE":"3170121","ECCENTRICITY":"0.00010520","GP_ID":"187503402","MEAN_MOTION_DDOT":"0.0000000000000","MEAN_MOTION_DOT":"0.00002041","OBJECT_NAME":"STARLINK-1739","OBJECT_TYPE":"PAYLOAD","MEAN_MOTION":"15.06399829","REF_FRAME":"TEME","EPHEMERIS_TYPE":"0","SEMIMAJOR_AXIS":"6925.349","PERIOD":"95.592","EPOCH":"2021-10-18T10:21:20.699712","BSTAR":"0.00015588000000","COUNTRY_CODE":"US","LAUNCH_DATE":"2020-09-03","CENTER_NAME":"EARTH","MEAN_ELEMENT_THEORY":"SGP4","RA_OF_ASC_NODE":"328.9263","PERIAPSIS":"546.486"},{"INCLINATION":"53.0558","DECAY_DATE":null,"RCS_SIZE":"LARGE","REV_AT_EPOCH":"6362","OBJECT_ID":"2020-062AR","TLE_LINE2":"2 46364  53.0558 307.3702 0006331  71.4654 288.7023 15.06402886 63620","TLE_LINE1":"1 46364U 20062AR  21291.77980910 -.00000313  00000-0 -19360-5 0  9992","APOAPSIS":"551.589","NORAD_CAT_ID":"46364","CLASSIFICATION_TYPE":"U","ARG_OF_PERICENTER":"71.4654","MEAN_ANOMALY":"288.7023","ELEMENT_SET_NO":"999","TIME_SYSTEM":"UTC","MEAN_MOTION_DDOT":"0.0000000000000","MEAN_MOTION_DOT":"-0.00000313","ECCENTRICITY":"0.00063310","GP_ID":"187537295","FILE":"3170620","SITE":"AFETR","EPHEMERIS_TYPE":"0","REF_FRAME":"TEME","MEAN_MOTION":"15.06402886","OBJECT_TYPE":"PAYLOAD","OBJECT_NAME":"STARLINK-1763","COUNTRY_CODE":"US","EPOCH":"2021-10-18T18:42:55.506240","BSTAR":"-0.00000193600000","SEMIMAJOR_AXIS":"6925.340","PERIOD":"95.592","PERIAPSIS":"542.820","RA_OF_ASC_NODE":"307.3702","MEAN_ELEMENT_THEORY":"SGP4","CENTER_NAME":"EARTH","LAUNCH_DATE":"2020-09-03"},{"MEAN_MOTION":"15.06402681","REF_FRAME":"TEME","EPHEMERIS_TYPE":"0","OBJECT_NAME":"STARLINK-1550","OBJECT_TYPE":"PAYLOAD","GP_ID":"187536043","ECCENTRICITY":"0.00011410","MEAN_MOTION_DDOT":"0.0000000000000","MEAN_MOTION_DOT":"0.00003633","SITE":"AFETR","FILE":"3170620","MEAN_ELEMENT_THEORY":"SGP4","RA_OF_ASC_NODE":"327.2393","PERIAPSIS":"546.415","LAUNCH_DATE":"2020-09-03","CENTER_NAME":"EARTH","BSTAR":"0.00026261000000","EPOCH":"2021-10-18T19:22:44.827392","COUNTRY_CODE":"US","PERIOD":"95.592","SEMIMAJOR_AXIS":"6925.340","TLE_LINE1":"1 46365U 20062AS  21291.80746328  .00003633  00000-0  26261-3 0  9992","TLE_LINE2":"2 46365  53.0538 327.2393 0001141  90.6330 269.4789 15.06402681 63341","APOAPSIS":"547.996","RCS_SIZE":"LARGE","DECAY_DATE":null,"INCLINATION":"53.0538","OBJECT_ID":"2020-062AS","REV_AT_EPOCH":"6334","MEAN_ANOMALY":"269.4789","ARG_OF_PERICENTER":"90.6330","TIME_SYSTEM":"UTC","ELEMENT_SET_NO":"999","NORAD_CAT_ID":"46365","CLASSIFICATION_TYPE":"U"},{"ELEMENT_SET_NO":"999","TIME_SYSTEM":"UTC","MEAN_ANOMALY":"279.0292","ARG_OF_PERICENTER":"81.0855","CLASSIFICATION_TYPE":"U","NORAD_CAT_ID":"46366","APOAPSIS":"548.171","TLE_LINE2":"2 46366  53.0547 327.2903 0001395  81.0855 279.0292 15.06402904 63340","TLE_LINE1":"1 46366U 20062AT  21291.79639015  .00000747  00000-0  69046-4 0  9997","OBJECT_ID":"2020-062AT","REV_AT_EPOCH":"6334","RCS_SIZE":"LARGE","INCLINATION":"53.0547","DECAY_DATE":null,"CENTER_NAME":"EARTH","LAUNCH_DATE":"2020-09-03","MEAN_ELEMENT_THEORY":"SGP4","RA_OF_ASC_NODE":"327.2903","PERIAPSIS":"546.239","SEMIMAJOR_AXIS":"6925.340","PERIOD":"95.592","COUNTRY_CODE":"US","BSTAR":"0.00006904600000","EPOCH":"2021-10-18T19:06:48.108960","OBJECT_NAME":"STARLINK-1651","OBJECT_TYPE":"PAYLOAD","MEAN_MOTION":"15.06402904","REF_FRAME":"TEME","EPHEMERIS_TYPE":"0","SITE":"AFETR","FILE":"3170620","GP_ID":"187536293","ECCENTRICITY":"0.00013950","MEAN_MOTION_DOT":"0.00000747","MEAN_MOTION_DDOT":"0.0000000000000"},{"EPOCH":"2021-10-18T14:19:30.768096","BSTAR":"0.00020531000000","COUNTRY_CODE":"US","SEMIMAJOR_AXIS":"6925.324","PERIOD":"95.592","MEAN_ELEMENT_THEORY":"SGP4","RA_OF_ASC_NODE":"353.1909","PERIAPSIS":"546.557","LAUNCH_DATE":"2020-09-03","CENTER_NAME":"EARTH","ECCENTRICITY":"0.00009130","GP_ID":"187537544","MEAN_MOTION_DDOT":"0.0000000000000","MEAN_MOTION_DOT":"0.00002779","SITE":"AFETR","FILE":"3170620","MEAN_MOTION":"15.06407970","EPHEMERIS_TYPE":"0","REF_FRAME":"TEME","OBJECT_NAME":"STARLINK-1658","OBJECT_TYPE":"PAYLOAD","NORAD_CAT_ID":"46368","CLASSIFICATION_TYPE":"U","ARG_OF_PERICENTER":"92.0939","MEAN_ANOMALY":"268.0155","TIME_SYSTEM":"UTC","ELEMENT_SET_NO":"999","RCS_SIZE":"LARGE","DECAY_DATE":null,"INCLINATION":"53.0565","OBJECT_ID":"2020-062AV","REV_AT_EPOCH":"6297","TLE_LINE1":"1 46368U 20062AV  21291.59688389  .00002779  00000-0  20531-3 0  9997","TLE_LINE2":"2 46368  53.0565 353.1909 0000913  92.0939 268.0155 15.06407970 62978","APOAPSIS":"547.821"}];
